#dP2023  4 10 12  0  0.00000000      96 __u+U ITR00 EXT  IAC
## 2257 129600.00000000   900.00000000 60044 0.5000000000000
+  119   C06C07C08C09C10C11C12C13C14C16C19C20C21C22C23C24C25
+        C26C27C28C29C30C32C33C34C35C36C37C38C39C40C41C42C43
+        C44C45C46E01E02E03E04E05E07E08E09E10E11E12E13E14E15
+        E18E19E21E24E25E26E27E30E31E33E34E36G01G02G03G04G05
+        G06G07G08G09G10G11G12G13G14G15G16G17G18G19G20G21G22
+        G23G24G25G26G27G28G29G30G31G32J02J03J04R01R02R03R04
+        R05R07R08R09R11R12R13R14R15R16R17R18R19R20R22R24R25
++         9  9  9 10  9  8  8  8  8  9  9  6  8  9  9  8  8
++        10  9  8  9  8  8 10  7  9  8  9  9  8  9  8 10  9
++         9  8  7  7  8  6  9  8  8  7  7  9  7  7  9  7 10
++         7  8  7  7  7  9  7  7  7  8 10 10  8  8  8  8  8
++         8  7  8  7  6  8  7  7  7  7  7  6  8  8  7  8  6
++         7  6  6  7  7  8  8  6  7  7 11  9  8  6  8  9  8
++         7  7  8  9  8  7 10  7  9  9  6  8  8  9  9  8  7
%c M  cc GPS ccc cccc cccc cccc cccc ccccc ccccc ccccc ccccc
%c cc cc ccc ccc cccc cccc cccc cccc ccccc ccccc ccccc ccccc
%f  0.0000000  0.000000000  0.00000000000  0.000000000000000
%f  0.0000000  0.000000000  0.00000000000  0.000000000000000
%i    0    0    0    0      0      0      0      0         0
%i    0    0    0    0      0      0      0      0         0
/* IAC                                ULTRA-RAPID PREDICTION
/* S/V CLOCKS ARE ALIGNED TO GNSS TIME                      
/* G:C1WC2W R:C1PC2P E:C1XC5X C:C2IC6I J:C1CC2S             
/* PCV:IGS20_2247 OL/AL:FES2004  NONE     YN ORB:CoN CLK:CoN
*  2023 04 10 16 15  0.00000000
PC06  -7989.933903  40355.399203   9900.535183   -197.211858
PC07  -7808.900413  26265.714208 -31996.263122   -150.140844
PC08 -19878.566714  27922.919295  24437.332663    507.065640
PC09  -3343.556865  42332.622797    813.164269    782.529918
PC10    984.046433  28602.151603 -30563.750093    -29.982356
PC11   7867.094358 -21099.468590  16553.659359    292.998957
PC12  15223.306875  -2446.921799  23291.729972    562.890918
PC13 -12432.282292  28577.123634  28436.924024    249.736920
PC14  11806.563125 -12000.326184 -22222.072412    105.497426
PC16  -9642.393055  39159.783828  13030.879084    113.369829
PC19  -1306.351996  16039.407379  22827.843106   -900.273155
PC20 -19135.994023   7044.967559  19085.696826    633.003801
PC21  26777.281643   6987.484148  -3451.761170   -909.656218
PC22  18162.924867  16258.188503  13562.608621   -542.479036
PC23  -6665.605108 -15415.052781  22287.706784   -903.176459
PC24  22926.330663 -15299.346774  -4463.533404   -187.657056
PC25  10203.956979 -22171.830425  13537.133619    104.042500
PC26  21212.431912  -1515.302539 -18102.165721   -104.363526
PC27 -16367.831397  -7212.198456 -21438.629303    123.621556
PC28 -11352.198197 -23279.170686 -10387.833819     90.976923
PC29   -305.029947  26620.262813  -8388.175270    105.327494
PC30 -12351.717333  13228.547418 -21258.309383      0.471658
PC32 -26860.795143  -6787.289025   3440.567569   -581.594435
PC33   1261.704421 -16043.477076 -22789.063393   -872.967596
PC34  11785.344397 -14473.079927  20722.151704    145.970441
PC35  11771.281102  23458.248360   9531.900160    648.549383
PC36 -11340.936198  21937.818463 -12969.318201   -509.370917
PC37 -20597.852664   -189.043960  18826.262360   -791.323532
PC38 -25582.425283  29072.414058  16555.748395     70.867352
PC39 -10921.464860  36374.942214  18596.569801     -2.499486
PC40 -11161.986520  20271.327629 -35259.085504    -19.974291
PC41 -17742.140569 -16342.590611 -13981.676164   -833.485577
PC42  20131.458669  -6199.528282 -18240.099624   -743.554668
PC43    970.279656 -26352.072480   9078.017402     16.045275
PC44  16740.608014   6861.533172  21239.703431     71.747009
PC45   7028.009372  15012.883221 -22449.978218    -83.350924
PC46 -22430.904131  16310.242544   2903.533533    -46.043125
PE01  20898.588736   9709.035503 -18587.145024     -3.649612
PE02 -21267.368530  -9438.932136  18278.962081     31.549552
PE03 -21269.044794 -19748.305728   5849.924790   -667.873774
PE04  21068.008553   3069.783947 -20551.065170    -97.633883
PE05  -8935.654728 -25210.238805 -12672.295954    -78.063066
PE07  -8630.241121  15690.257143  23578.809506    -36.577702
PE08 -21075.386697  -3343.602091  20525.019812    -65.223986
PE09   8619.446016 -15488.095280 -23699.610686   -900.159198
PE10  17700.262272 -17306.894499  16216.182219   -525.498242
PE11  14323.924289 -24958.176095   6873.441202   1560.096728
PE12  18191.205056  -7549.280141  22083.053876   -493.316349
PE13 -14638.754500  24561.315414  -7685.513446    -18.432578
PE14  14998.946361  18602.501438   3020.938386    193.317980
PE15 -18085.648128   7264.487432 -22279.103350    -13.631870
PE18 -23626.051101 -18038.976542 -12581.593592   -181.261314
PE19  20168.946573  21408.417227  -3326.052733  -2797.881050
PE21   2042.855516  16620.523778 -24413.977721   -522.600634
PE24  20231.093921 -14321.509117  16178.536901    -36.812304
PE25  -1640.029166 -16674.211766  24401.828027   -603.024371
PE26  -2063.690340  27039.500005  11875.627072     71.280014
PE27 -19476.125239  14659.169351 -16786.743858    -21.789875
PE30 -29348.205192   3590.935509   1206.394771    -82.036719
PE31  29312.994328  -4085.780961   -649.298594   -520.935935
PE33  10820.156073  14211.465421  23608.364286   -446.680352
PE34 -10951.008504 -14023.842817 -23662.315808    -39.514847
PE36   2659.460262 -27250.843634 -11226.999087    -39.349497
PG01  14121.425809 -21405.351497   5822.960969    194.499792
PG02  -8027.869543  25503.679995   1194.785424   -607.325141
PG03  17009.550981 -12678.257164 -16030.703286   -332.251885
PG04   6583.303162 -15619.740819 -20408.361409     13.578568
PG05 -26123.088581   4933.246622   1305.293763   -122.885181
PG06  -9039.017757 -13442.245631 -20963.056935    586.314385
PG07   4900.639847 -24763.147640   7851.554861    204.365610
PG08  15507.344445  -4179.614764  21146.591252   -117.100650
PG09  -3694.031910 -21876.910551 -14638.975861   -182.843035
PG10  13990.450891  11733.391378  19576.679296    -32.263950
PG11 -16585.671350   1060.448002 -20702.412663   -158.058785
PG12 -19617.240089  10771.602227 -14512.934134   -362.271729
PG13 -17504.449281  -4539.946277  19346.942361    503.737777
PG14 -10681.594598 -13673.248043  20154.157489     21.052159
PG15 -14882.946214   6602.038000  20569.951587     29.407552
PG16  26787.966686    411.773756  -1325.865785   -509.791852
PG17 -12824.948529 -23109.459955   2403.552046    709.915481
PG18  -3001.857065  23970.709304  10868.077874   -218.225794
PG19 -17128.967379 -19037.392728  -7811.203123    301.834197
PG20 -24959.048557    498.257159  -8740.308497    439.815216
PG21  16109.754020 -14890.476643  14901.086025    154.255951
PG22  18096.222671  16719.620475  -9683.747093    461.664636
PG23    714.896647  14970.955982  21927.372604     15.942638
PG24 -14535.713759  19314.906062  10155.970417   -146.507953
PG25  -8709.985794  15380.349256 -20060.440353    434.565420
PG26  22413.877177   6056.193015 -13316.845534    241.809405
PG27  19533.275755   7644.221829  16291.199469     61.920429
PG28   8818.219359  15268.522093 -19891.979391     62.518348
PG29  -1241.102269  20146.256825 -17270.304368   -594.919061
PG30  -4470.783569 -20060.231006  16784.004124   -523.020568
PG31  13351.568736   7793.140234 -21758.323649   -213.660916
PG32  16048.938878  21297.448809   -242.173420   -447.864418
PJ02 -33799.955843  17171.755842 -13815.336443     -1.478644
PJ03 -21595.391481  29931.679319 -15773.119557      2.096416
PJ04 -28093.570851  26496.117395  22990.633365     94.172898
PR01  -6344.344152   9077.888205  22986.803087     26.417156
PR02  11605.168100  15778.364362  16428.159181    -22.974745
PR03  22016.258860  12935.883038    417.672906     75.776030
PR04  19924.802114   3280.104891 -15556.824982    182.788602
PR05   7136.779440  -8250.740419 -23040.390440    110.744276
PR07 -22184.953166 -12528.443807    571.328712     53.523291
PR08 -19855.777133  -2872.003005  15800.523175    -70.287581
PR09    536.529813 -13053.841830  21909.347045    113.969301
PR11 -22457.879774   8876.755271   8248.190483    -33.568180
PR12 -16882.182817  15833.303214 -10682.793405     26.340617
PR13  -2697.567442  13617.620072 -21416.585330    -33.848631
PR14  15169.829615   2466.940797 -20344.611380     24.528586
PR15  22664.265637  -9322.504419  -7055.748830     89.880953
PR16  16991.700017 -15881.371586  10443.547460     13.362907
PR17   8914.506693  13407.891278  19777.737452    619.998991
PR18  10352.730805  -4441.941355  22890.338929     75.847042
PR19   7596.444309 -19000.444005  15223.442637   -228.556797
PR20   -964.253959 -25019.181200  -4739.539549    -90.856075
PR22 -10852.675782   5142.378089 -22482.757391     78.728055
PR24   2200.522364  24843.716269   5347.223284    160.862444
PR25  -8470.824371 -14069.700099 -19520.926366     60.768072
EOF
